
# Worst residual: 9.23 km
# MJD 60148.000000 (2023 Jul 23  0:00)
1983-020A = NORAD 13901 = ASTRON
1 13901U 83020A   23204.49919926  .00000000  00000-0  00000-0 0 19370
2 13901 076.8527 067.6651 5426434 012.5065 021.6602 00.24299976    04

# Worst residual: 1.95 km
# MJD 60149.000000 (2023 Jul 24  0:00)
1983-020A = NORAD 13901 = ASTRON
1 13901U 83020A   23205.49919926  .00000000  00000-0  00000-0 0 19371
2 13901 076.8687 067.6492 5426509 012.5204 109.0922 00.24301212    05

# Worst residual: 4.22 km
# MJD 60150.000000 (2023 Jul 25  0:00)
1983-020A = NORAD 13901 = ASTRON
1 13901U 83020A   23206.49919926  .00000000  00000-0  00000-0 0 19372
2 13901 076.9076 067.6441 5426273 012.5466 196.5598 00.24306635    04

# Worst residual: 9.62 km
# MJD 60151.000000 (2023 Jul 26  0:00)
1983-020A = NORAD 13901 = ASTRON
1 13901U 83020A   23207.49919926  .00000000  00000-0  00000-0 0 19373
2 13901 076.9411 067.6546 5429395 012.5703 284.0993 00.24309515    07

# Worst residual: 34.50 km
# MJD 60152.000000 (2023 Jul 27  0:00)
1983-020A = NORAD 13901 = ASTRON
1 13901U 83020A   23208.49919926  .00000000  00000-0  00000-0 0 19374
2 13901 076.9426 067.6629 5443567 012.5941 011.5950 00.24214518    00

# Worst residual: 15.31 km
# MJD 60153.000000 (2023 Jul 28  0:00)
1983-020A = NORAD 13901 = ASTRON
1 13901U 83020A   23209.49919926  .00000000  00000-0  00000-0 0 19375
2 13901 076.9452 067.6562 5424701 012.6450 099.0737 00.24277091    09

# Worst residual: 19.05 km
# MJD 60154.000000 (2023 Jul 29  0:00)
1983-020A = NORAD 13901 = ASTRON
1 13901U 83020A   23210.49919926  .00000000  00000-0  00000-0 0 19377
2 13901 076.9434 067.6485 5406557 012.7575 186.2763 00.24241123    06

# Worst residual: 20.07 km
# MJD 60155.000000 (2023 Jul 30  0:00)
1983-020A = NORAD 13901 = ASTRON
1 13901U 83020A   23211.49919926  .00000000  00000-0  00000-0 0 19378
2 13901 076.8908 067.6050 5396483 013.0192 272.9338 00.24268523    08

# Worst residual: 26.29 km
# MJD 60156.000000 (2023 Jul 31  0:00)
1983-020A = NORAD 13901 = ASTRON
1 13901U 83020A   23212.49919926  .00000000  00000-0  00000-0 0 19379
2 13901 076.9053 067.5536 5398041 013.1067 000.2445 00.24265261    09

# Worst residual: 12.31 km
# MJD 60157.000000 (2023 Aug  1  0:00)
1983-020A = NORAD 13901 = ASTRON
1 13901U 83020A   23213.49919926  .00000000  00000-0  00000-0 0 19370
2 13901 076.9262 067.5856 5393459 013.1027 087.6594 00.24286435    00

# Worst residual: 5.13 km
# MJD 60158.000000 (2023 Aug  2  0:00)
1983-020A = NORAD 13901 = ASTRON
1 13901U 83020A   23214.49919926  .00000000  00000-0  00000-0 0 19371
2 13901 076.9625 067.5767 5392930 013.0484 175.3109 00.24313467    06

# Worst residual: 9.67 km
# MJD 60159.000000 (2023 Aug  3  0:00)
1983-020A = NORAD 13901 = ASTRON
1 13901U 83020A   23215.49919926  .00000000  00000-0  00000-0 0 19372
2 13901 076.9854 067.5767 5394071 013.1134 262.7643 00.24327397    02

# Worst residual: 31.63 km
# MJD 60160.000000 (2023 Aug  4  0:00)
1983-020A = NORAD 13901 = ASTRON
1 13901U 83020A   23216.49919926  .00000000  00000-0  00000-0 0 19373
2 13901 076.9888 067.5608 5380653 013.1399 350.1949 00.24364533    01

# Worst residual: 15.03 km
# MJD 60161.000000 (2023 Aug  5  0:00)
1983-020A = NORAD 13901 = ASTRON
1 13901U 83020A   23217.49919926  .00000000  00000-0  00000-0 0 19374
2 13901 077.0026 067.5462 5390951 013.0644 077.7044 00.24321584    06

# Worst residual: 6.63 km
# MJD 60162.000000 (2023 Aug  6  0:00)
1983-020A = NORAD 13901 = ASTRON
1 13901U 83020A   23218.49919926  .00000000  00000-0  00000-0 0 19375
2 13901 077.0181 067.5369 5391138 013.2066 164.8843 00.24290713    06

# Worst residual: 2.59 km
# MJD 60163.000000 (2023 Aug  7  0:00)
1983-020A = NORAD 13901 = ASTRON
1 13901U 83020A   23219.49919926  .00000000  00000-0  00000-0 0 19376
2 13901 077.0114 067.5245 5390128 013.2908 252.1732 00.24296589    03

# Worst residual: 21.54 km
# MJD 60164.000000 (2023 Aug  8  0:00)
1983-020A = NORAD 13901 = ASTRON
1 13901U 83020A   23220.49919926  .00000000  00000-0  00000-0 0 19378
2 13901 077.0200 067.5331 5394983 013.2851 339.6805 00.24259496    03

# Worst residual: 15.90 km
# MJD 60165.000000 (2023 Aug  9  0:00)
1983-020A = NORAD 13901 = ASTRON
1 13901U 83020A   23221.49919926  .00000000  00000-0  00000-0 0 19379
2 13901 077.0109 067.5233 5390006 013.4128 066.9552 00.24248845    08

# Worst residual: 3.75 km
# MJD 60166.000000 (2023 Aug 10  0:00)
1983-020A = NORAD 13901 = ASTRON
1 13901U 83020A   23222.49919926  .00000000  00000-0  00000-0 0 19370
2 13901 077.0033 067.5200 5387270 013.3409 154.5349 00.24289453    06

# Worst residual: 2.27 km
# MJD 60167.000000 (2023 Aug 11  0:00)
1983-020A = NORAD 13901 = ASTRON
1 13901U 83020A   23223.49919926  .00000000  00000-0  00000-0 0 19371
2 13901 077.0085 067.5138 5388346 013.3879 241.9245 00.24298421    00

# Worst residual: 20.79 km
# MJD 60168.000000 (2023 Aug 12  0:00)
1983-020A = NORAD 13901 = ASTRON
1 13901U 83020A   23224.49919926  .00000000  00000-0  00000-0 0 19372
2 13901 077.0170 067.5008 5387319 013.3948 329.3811 00.24281165    04

# Worst residual: 18.01 km
# MJD 60169.000000 (2023 Aug 13  0:00)
1983-020A = NORAD 13901 = ASTRON
1 13901U 83020A   23225.49919926  .00000000  00000-0  00000-0 0 19373
2 13901 077.0509 067.5171 5387411 013.4890 056.6790 00.24247457    03

# Worst residual: 4.81 km
# MJD 60170.000000 (2023 Aug 14  0:00)
1983-020A = NORAD 13901 = ASTRON
1 13901U 83020A   23226.49919926  .00000000  00000-0  00000-0 0 19374
2 13901 077.0456 067.5180 5380934 013.4218 144.2807 00.24291091    07

# Worst residual: 5.83 km
# MJD 60171.000000 (2023 Aug 15  0:00)
1983-020A = NORAD 13901 = ASTRON
1 13901U 83020A   23227.49919926  .00000000  00000-0  00000-0 0 19375
2 13901 077.0587 067.5128 5380798 013.4683 231.6692 00.24297932    01

# Worst residual: 20.60 km
# MJD 60172.000000 (2023 Aug 16  0:00)
1983-020A = NORAD 13901 = ASTRON
1 13901U 83020A   23228.49919926  .00000000  00000-0  00000-0 0 19376
2 13901 077.0596 067.4985 5372418 013.5905 318.9172 00.24337182    03

# Worst residual: 21.04 km
# MJD 60173.000000 (2023 Aug 17  0:00)
1983-020A = NORAD 13901 = ASTRON
1 13901U 83020A   23229.49919926  .00000000  00000-0  00000-0 0 19377
2 13901 077.0848 067.4921 5370769 013.4787 046.4833 00.24328129    05

# Worst residual: 1.29 km
# MJD 60174.000000 (2023 Aug 18  0:00)
1983-020A = NORAD 13901 = ASTRON
1 13901U 83020A   23230.49919926  .00000000  00000-0  00000-0 0 19379
2 13901 077.0863 067.4906 5372918 013.5400 133.8711 00.24309081    08

# Worst residual: 3.30 km
# MJD 60175.000000 (2023 Aug 19  0:00)
1983-020A = NORAD 13901 = ASTRON
1 13901U 83020A   23231.49919926  .00000000  00000-0  00000-0 0 19370
2 13901 077.0697 067.4783 5370279 013.5706 221.3586 00.24307086    09

# Worst residual: 5.67 km
# MJD 60176.000000 (2023 Aug 20  0:00)
1983-020A = NORAD 13901 = ASTRON
1 13901U 83020A   23232.49919926  .00000000  00000-0  00000-0 0 19371
2 13901 077.0604 067.4581 5367488 013.6067 308.8108 00.24307079    05
